{"type":"FeatureCollection","features":[{"type":"Feature","properties":{},"geometry":{"type":"MultiPolygon","coordinates":[[[[95.0,15.0],[95.0,55.0],[155.0,55.0],[155.0,15.0],[95.0,15.0]],[[125.151,34.052],[125.108,34.103],[125.075,34.076],[125.123,34.040],[125.149,34.046],[125.151,34.052]],[[125.989,34.321],[125.964,34.324],[125.946,34.313],[125.947,34.305],[125.984,34.290],[125.972,34.275],[125.991,34.248],[126.004,34.266],[125.980,34.305],[125.989,34.318],[126.013,34.290],[126.052,34.271],[126.068,34.270],[126.080,34.279],[126.110,34.258],[126.117,34.261],[126.102,34.276],[126.092,34.317],[126.069,34.315],[126.065,34.325],[126.032,34.348],[125.995,34.347],[125.989,34.321]],[[125.856,34.636],[125.821,34.621],[125.799,34.627],[125.797,34.619],[125.816,34.588],[125.859,34.599],[125.868,34.595],[125.878,34.601],[125.891,34.592],[125.896,34.596],[125.856,34.636]],[[125.413,34.701],[125.404,34.695],[125.385,34.703],[125.372,34.681],[125.359,34.679],[125.357,34.670],[125.390,34.672],[125.380,34.641],[125.414,34.619],[125.428,34.653],[125.449,34.658],[125.474,34.693],[125.471,34.719],[125.485,34.721],[125.487,34.727],[125.460,34.747],[125.447,34.742],[125.442,34.752],[125.425,34.760],[125.422,34.751],[125.434,34.744],[125.434,34.732],[125.457,34.709],[125.456,34.696],[125.449,34.694],[125.443,34.704],[125.413,34.701]],[[125.924,34.783],[125.919,34.795],[125.902,34.795],[125.894,34.783],[125.881,34.713],[125.910,34.700],[125.912,34.673],[125.944,34.655],[125.942,34.630],[125.976,34.614],[125.974,34.606],[125.953,34.601],[125.953,34.590],[125.977,34.572],[125.989,34.593],[126.000,34.592],[126.009,34.600],[126.019,34.593],[126.014,34.562],[126.036,34.549],[126.021,34.540],[126.023,34.530],[126.058,34.525],[126.106,34.551],[126.116,34.589],[126.089,34.618],[126.094,34.630],[126.083,34.645],[126.072,34.634],[126.045,34.628],[126.045,34.635],[126.054,34.641],[126.055,34.674],[126.042,34.671],[126.042,34.637],[126.001,34.646],[125.988,34.626],[125.981,34.626],[125.966,34.655],[126.001,34.679],[126.021,34.705],[125.978,34.719],[125.967,34.741],[125.951,34.738],[125.948,34.754],[126.009,34.760],[126.008,34.744],[126.027,34.717],[126.033,34.723],[126.019,34.747],[126.023,34.753],[126.042,34.751],[126.069,34.730],[126.084,34.745],[126.099,34.736],[126.095,34.713],[126.086,34.710],[126.076,34.720],[126.069,34.716],[126.080,34.696],[126.059,34.683],[126.055,34.674],[126.064,34.673],[126.085,34.686],[126.089,34.699],[126.116,34.704],[126.159,34.695],[126.153,34.678],[126.111,34.655],[126.111,34.643],[126.124,34.638],[126.125,34.630],[126.105,34.627],[126.106,34.617],[126.130,34.607],[126.185,34.625],[126.225,34.622],[126.209,34.631],[126.205,34.640],[126.189,34.644],[126.179,34.669],[126.193,34.677],[126.207,34.702],[126.193,34.714],[126.180,34.716],[126.178,34.754],[126.169,34.763],[126.176,34.795],[126.159,34.811],[126.165,34.825],[126.154,34.831],[126.156,34.843],[126.149,34.854],[126.163,34.868],[126.146,34.886],[126.109,34.887],[126.094,34.896],[126.098,34.924],[126.059,34.945],[126.053,34.942],[126.050,34.918],[126.013,34.918],[125.988,34.881],[125.962,34.875],[126.017,34.855],[126.041,34.838],[126.038,34.822],[126.059,34.810],[126.075,34.790],[126.069,34.776],[126.051,34.775],[126.028,34.786],[126.023,34.777],[126.040,34.771],[126.041,34.764],[126.008,34.762],[126.006,34.775],[125.996,34.783],[126.003,34.806],[125.997,34.809],[125.981,34.805],[125.972,34.823],[125.960,34.828],[125.949,34.812],[125.965,34.813],[125.973,34.804],[125.971,34.798],[125.934,34.781],[125.924,34.783]],[[126.219,34.990],[126.194,34.972],[126.203,34.952],[126.187,34.953],[126.182,34.945],[126.188,34.936],[126.187,34.912],[126.204,34.924],[126.218,34.913],[126.257,34.913],[126.260,34.933],[126.253,34.941],[126.255,34.950],[126.240,34.963],[126.233,34.960],[126.227,34.943],[126.215,34.941],[126.220,34.952],[126.219,34.990]],[[126.294,35.632],[126.268,35.638],[126.267,35.615],[126.242,35.583],[126.265,35.563],[126.317,35.616],[126.294,35.632]],[[126.123,37.251],[126.102,37.280],[126.077,37.293],[126.071,37.289],[126.074,37.279],[126.094,37.269],[126.083,37.216],[126.101,37.223],[126.113,37.205],[126.139,37.206],[126.156,37.217],[126.180,37.189],[126.187,37.190],[126.198,37.211],[126.171,37.225],[126.168,37.237],[126.123,37.251]],[[126.211,37.664],[126.197,37.694],[126.154,37.682],[126.124,37.694],[126.118,37.689],[126.121,37.682],[126.147,37.677],[126.153,37.669],[126.206,37.649],[126.217,37.651],[126.260,37.620],[126.267,37.623],[126.260,37.656],[126.243,37.666],[126.211,37.664]],[[124.679,37.809],[124.682,37.794],[124.714,37.801],[124.736,37.838],[124.733,37.845],[124.704,37.855],[124.680,37.828],[124.663,37.827],[124.660,37.820],[124.679,37.809]],[[124.754,37.958],[124.710,37.988],[124.611,37.974],[124.609,37.966],[124.642,37.917],[124.693,37.909],[124.713,37.928],[124.715,37.940],[124.751,37.952],[124.754,37.958]],[[124.877,38.546],[124.819,38.568],[124.765,38.520],[124.799,38.507],[124.811,38.518],[124.867,38.493],[124.902,38.503],[124.877,38.546]],[[124.691,39.544],[124.706,39.569],[124.677,39.581],[124.667,39.571],[124.635,39.575],[124.590,39.541],[124.590,39.532],[124.615,39.542],[124.641,39.532],[124.652,39.542],[124.672,39.530],[124.686,39.532],[124.680,39.500],[124.710,39.500],[124.721,39.539],[124.695,39.539],[124.691,39.544]],[[124.796,39.520],[124.798,39.513],[124.818,39.509],[124.812,39.495],[124.817,39.490],[124.863,39.498],[124.910,39.539],[124.942,39.545],[124.942,39.552],[124.919,39.571],[124.931,39.612],[124.917,39.614],[124.914,39.626],[124.898,39.631],[124.892,39.615],[124.870,39.613],[124.868,39.580],[124.819,39.554],[124.822,39.548],[124.840,39.546],[124.849,39.525],[124.824,39.507],[124.816,39.520],[124.796,39.520]],[[126.398,33.488],[126.310,33.475],[126.241,33.415],[126.218,33.413],[126.218,33.395],[126.161,33.345],[126.156,33.289],[126.271,33.189],[126.297,33.193],[126.302,33.220],[126.326,33.236],[126.370,33.227],[126.448,33.237],[126.468,33.222],[126.521,33.236],[126.604,33.232],[126.660,33.268],[126.741,33.273],[126.779,33.302],[126.837,33.305],[126.873,33.367],[126.908,33.388],[126.918,33.424],[126.940,33.425],[126.934,33.446],[126.951,33.456],[126.934,33.477],[126.918,33.475],[126.907,33.525],[126.857,33.531],[126.818,33.566],[126.761,33.572],[126.672,33.550],[126.643,33.560],[126.628,33.541],[126.526,33.518],[126.494,33.526],[126.398,33.488]],[[127.328,34.000],[127.323,34.016],[127.340,34.034],[127.328,34.062],[127.294,34.066],[127.271,34.052],[127.290,34.011],[127.328,34.000]],[[126.549,34.239],[126.557,34.212],[126.539,34.189],[126.500,34.165],[126.498,34.143],[126.527,34.117],[126.589,34.153],[126.601,34.143],[126.622,34.144],[126.632,34.121],[126.648,34.123],[126.664,34.108],[126.687,34.150],[126.672,34.170],[126.690,34.183],[126.649,34.206],[126.630,34.200],[126.614,34.228],[126.631,34.240],[126.613,34.256],[126.589,34.245],[126.584,34.236],[126.549,34.239]],[[126.866,34.206],[126.840,34.209],[126.839,34.201],[126.852,34.197],[126.841,34.176],[126.851,34.165],[126.850,34.149],[126.869,34.156],[126.881,34.145],[126.912,34.147],[126.937,34.189],[126.933,34.194],[126.916,34.194],[126.913,34.218],[126.884,34.223],[126.866,34.206]],[[127.030,34.397],[127.004,34.364],[126.980,34.365],[126.987,34.350],[126.965,34.343],[126.956,34.310],[126.971,34.296],[127.018,34.315],[127.005,34.341],[127.009,34.347],[127.017,34.346],[127.028,34.328],[127.040,34.325],[127.039,34.303],[127.074,34.323],[127.091,34.316],[127.092,34.301],[127.108,34.312],[127.097,34.326],[127.106,34.339],[127.081,34.365],[127.096,34.374],[127.095,34.396],[127.064,34.377],[127.064,34.364],[127.050,34.358],[127.038,34.378],[127.053,34.380],[127.055,34.387],[127.030,34.397]],[[127.067,34.456],[127.021,34.460],[127.018,34.452],[127.043,34.412],[127.057,34.406],[127.063,34.397],[127.079,34.405],[127.086,34.429],[127.077,34.434],[127.067,34.456]],[[128.283,34.635],[128.259,34.651],[128.263,34.678],[128.214,34.683],[128.215,34.674],[128.235,34.671],[128.240,34.660],[128.218,34.637],[128.237,34.605],[128.264,34.619],[128.309,34.609],[128.331,34.616],[128.329,34.623],[128.316,34.627],[128.303,34.624],[128.302,34.641],[128.283,34.635]],[[128.271,34.812],[128.239,34.846],[128.204,34.865],[128.164,34.851],[128.164,34.838],[128.239,34.788],[128.245,34.791],[128.247,34.805],[128.271,34.812]],[[126.441,35.836],[126.430,35.819],[126.404,35.837],[126.397,35.822],[126.374,35.817],[126.362,35.823],[126.361,35.806],[126.381,35.797],[126.392,35.807],[126.412,35.792],[126.491,35.814],[126.441,35.836]],[[126.437,37.432],[126.415,37.465],[126.387,37.461],[126.366,37.478],[126.351,37.460],[126.362,37.436],[126.381,37.428],[126.397,37.436],[126.412,37.423],[126.392,37.393],[126.410,37.362],[126.444,37.372],[126.419,37.409],[126.437,37.432]],[[130.813,37.464],[130.882,37.442],[130.934,37.476],[130.922,37.543],[130.916,37.547],[130.798,37.518],[130.813,37.464]],[[126.448,37.545],[126.425,37.553],[126.394,37.531],[126.385,37.542],[126.353,37.541],[126.311,37.564],[126.304,37.560],[126.326,37.518],[126.384,37.522],[126.393,37.530],[126.442,37.510],[126.437,37.492],[126.468,37.462],[126.469,37.447],[126.484,37.439],[126.495,37.458],[126.566,37.474],[126.581,37.504],[126.509,37.539],[126.486,37.499],[126.475,37.498],[126.478,37.538],[126.458,37.549],[126.448,37.545]],[[124.538,40.220],[124.368,40.096],[124.145,39.852],[124.150,39.847],[124.204,39.854],[124.214,39.886],[124.222,39.887],[124.234,39.858],[124.199,39.799],[124.226,39.785],[124.252,39.801],[124.240,39.822],[124.269,39.850],[124.263,39.868],[124.281,39.891],[124.285,39.914],[124.312,39.928],[124.316,39.922],[124.308,39.903],[124.324,39.889],[124.329,39.857],[124.356,39.859],[124.366,39.849],[124.389,39.861],[124.410,39.827],[124.404,39.798],[124.410,39.800],[124.427,39.829],[124.454,39.835],[124.552,39.805],[124.545,39.773],[124.579,39.771],[124.583,39.760],[124.560,39.734],[124.548,39.737],[124.515,39.721],[124.512,39.710],[124.518,39.707],[124.544,39.722],[124.553,39.715],[124.591,39.716],[124.615,39.685],[124.632,39.685],[124.609,39.630],[124.624,39.610],[124.612,39.593],[124.636,39.580],[124.643,39.582],[124.648,39.604],[124.680,39.612],[124.705,39.639],[124.743,39.639],[124.752,39.630],[124.776,39.633],[124.776,39.641],[124.759,39.642],[124.743,39.661],[124.774,39.684],[124.752,39.695],[124.756,39.715],[124.770,39.730],[124.789,39.735],[124.800,39.716],[124.838,39.713],[124.858,39.691],[124.883,39.697],[124.896,39.655],[124.922,39.646],[124.932,39.648],[124.943,39.637],[124.954,39.656],[124.960,39.657],[124.974,39.623],[125.015,39.644],[125.023,39.625],[125.057,39.625],[125.057,39.607],[125.100,39.611],[125.136,39.566],[125.129,39.553],[125.140,39.541],[125.126,39.530],[125.144,39.517],[125.168,39.539],[125.167,39.565],[125.191,39.571],[125.191,39.588],[125.213,39.593],[125.218,39.590],[125.218,39.576],[125.252,39.561],[125.284,39.522],[125.315,39.524],[125.403,39.567],[125.410,39.564],[125.400,39.507],[125.330,39.457],[125.365,39.373],[125.372,39.373],[125.385,39.389],[125.392,39.386],[125.409,39.305],[125.396,39.292],[125.405,39.273],[125.384,39.239],[125.368,39.241],[125.329,39.216],[125.317,39.194],[125.289,39.165],[125.276,39.118],[125.284,39.108],[125.279,39.096],[125.293,39.088],[125.294,39.082],[125.262,39.084],[125.205,39.007],[125.215,38.989],[125.168,38.953],[125.143,38.886],[125.121,38.877],[125.142,38.859],[125.142,38.822],[125.128,38.811],[125.141,38.782],[125.164,38.781],[125.184,38.766],[125.217,38.731],[125.219,38.720],[125.278,38.691],[125.305,38.696],[125.330,38.709],[125.338,38.704],[125.353,38.707],[125.356,38.700],[125.344,38.683],[125.325,38.688],[125.306,38.643],[125.267,38.679],[125.205,38.658],[125.168,38.675],[125.168,38.649],[125.163,38.644],[125.119,38.680],[125.098,38.659],[125.123,38.624],[125.116,38.597],[125.124,38.584],[125.082,38.589],[125.067,38.553],[125.053,38.558],[125.056,38.570],[125.046,38.590],[125.079,38.599],[125.078,38.608],[125.039,38.603],[125.012,38.585],[124.957,38.596],[124.957,38.588],[124.986,38.574],[124.978,38.532],[125.001,38.523],[125.005,38.496],[124.974,38.471],[124.959,38.475],[124.850,38.341],[124.871,38.310],[124.862,38.261],[124.866,38.245],[124.796,38.183],[124.780,38.190],[124.719,38.141],[124.662,38.145],[124.647,38.131],[124.648,38.124],[124.775,38.091],[124.856,38.101],[124.886,38.128],[125.001,38.059],[125.174,38.093],[125.220,38.075],[125.246,38.077],[125.248,38.070],[125.229,38.057],[125.225,38.043],[125.202,38.059],[125.109,38.055],[125.098,38.019],[125.112,37.986],[125.125,37.982],[125.126,37.964],[125.091,37.966],[125.083,37.987],[125.061,37.990],[125.028,37.967],[124.993,37.966],[124.969,37.927],[124.954,37.929],[124.951,37.923],[124.969,37.914],[124.977,37.918],[124.987,37.914],[125.000,37.922],[125.006,37.906],[125.036,37.895],[125.058,37.902],[125.083,37.875],[125.131,37.862],[125.143,37.871],[125.176,37.864],[125.242,37.899],[125.282,37.895],[125.284,37.888],[125.275,37.878],[125.286,37.865],[125.225,37.817],[125.224,37.811],[125.257,37.813],[125.259,37.806],[125.248,37.800],[125.252,37.793],[125.277,37.803],[125.301,37.796],[125.332,37.820],[125.347,37.817],[125.349,37.811],[125.322,37.788],[125.323,37.771],[125.266,37.748],[125.248,37.745],[125.240,37.760],[125.209,37.758],[125.209,37.749],[125.236,37.735],[125.206,37.699],[125.259,37.697],[125.348,37.769],[125.354,37.754],[125.309,37.718],[125.344,37.672],[125.375,37.726],[125.419,37.735],[125.471,37.721],[125.503,37.765],[125.506,37.789],[125.526,37.764],[125.621,37.760],[125.628,37.798],[125.618,37.811],[125.648,37.828],[125.645,37.833],[125.628,37.834],[125.624,37.844],[125.644,37.856],[125.638,37.895],[125.682,37.887],[125.740,37.931],[125.736,37.938],[125.709,37.931],[125.712,37.948],[125.724,37.948],[125.727,37.954],[125.695,37.982],[125.721,37.994],[125.724,38.012],[125.745,38.014],[125.805,37.987],[125.787,37.953],[125.824,37.936],[125.827,37.925],[125.887,37.867],[125.891,37.839],[125.900,37.825],[125.927,37.831],[125.937,37.840],[125.989,37.827],[125.990,37.834],[125.973,37.848],[125.979,37.863],[125.972,37.879],[125.985,37.882],[126.019,37.844],[126.044,37.856],[126.049,37.813],[126.089,37.780],[126.082,37.752],[126.126,37.738],[126.163,37.743],[126.173,37.781],[126.153,37.824],[126.159,37.832],[126.286,37.842],[126.341,37.873],[126.395,37.883],[126.420,37.850],[126.450,37.843],[126.455,37.827],[126.432,37.836],[126.392,37.829],[126.347,37.795],[126.338,37.803],[126.238,37.821],[126.199,37.772],[126.201,37.765],[126.231,37.747],[126.272,37.764],[126.293,37.756],[126.343,37.794],[126.363,37.758],[126.349,37.709],[126.326,37.717],[126.330,37.753],[126.325,37.757],[126.286,37.746],[126.280,37.715],[126.274,37.718],[126.273,37.728],[126.258,37.736],[126.250,37.722],[126.217,37.725],[126.214,37.717],[126.249,37.712],[126.263,37.719],[126.266,37.706],[126.327,37.668],[126.340,37.637],[126.380,37.666],[126.375,37.691],[126.385,37.693],[126.402,37.660],[126.363,37.639],[126.369,37.607],[126.461,37.583],[126.476,37.609],[126.498,37.598],[126.502,37.584],[126.528,37.582],[126.532,37.587],[126.528,37.601],[126.540,37.612],[126.538,37.628],[126.544,37.632],[126.571,37.618],[126.592,37.578],[126.608,37.582],[126.620,37.570],[126.634,37.580],[126.644,37.577],[126.646,37.570],[126.627,37.550],[126.652,37.536],[126.647,37.504],[126.658,37.492],[126.598,37.486],[126.585,37.442],[126.631,37.430],[126.669,37.384],[126.685,37.390],[126.714,37.377],[126.733,37.381],[126.733,37.373],[126.687,37.337],[126.688,37.330],[126.748,37.336],[126.751,37.299],[126.804,37.293],[126.778,37.240],[126.759,37.258],[126.677,37.264],[126.675,37.271],[126.687,37.279],[126.681,37.285],[126.662,37.276],[126.672,37.265],[126.672,37.253],[126.658,37.245],[126.658,37.233],[126.652,37.230],[126.625,37.240],[126.620,37.262],[126.578,37.275],[126.583,37.294],[126.578,37.298],[126.561,37.284],[126.530,37.290],[126.554,37.245],[126.550,37.238],[126.540,37.237],[126.516,37.259],[126.506,37.259],[126.499,37.281],[126.472,37.291],[126.424,37.261],[126.428,37.230],[126.449,37.231],[126.456,37.218],[126.490,37.252],[126.508,37.250],[126.547,37.224],[126.548,37.217],[126.527,37.196],[126.530,37.189],[126.550,37.197],[126.565,37.187],[126.581,37.211],[126.617,37.202],[126.621,37.208],[126.613,37.219],[126.625,37.225],[126.640,37.210],[126.636,37.194],[126.651,37.191],[126.645,37.150],[126.670,37.148],[126.669,37.134],[126.688,37.111],[126.790,37.171],[126.791,37.162],[126.777,37.149],[126.789,37.135],[126.754,37.117],[126.764,37.060],[126.739,37.036],[126.796,37.012],[126.797,37.006],[126.785,37.000],[126.785,36.993],[126.823,36.990],[126.909,36.903],[126.856,36.881],[126.839,36.836],[126.831,36.837],[126.824,36.856],[126.833,36.888],[126.818,36.928],[126.791,36.926],[126.799,36.944],[126.786,36.979],[126.720,36.990],[126.709,36.985],[126.686,37.004],[126.661,36.983],[126.664,36.964],[126.639,36.959],[126.635,36.977],[126.582,37.002],[126.577,37.029],[126.495,37.065],[126.492,37.057],[126.518,37.034],[126.510,37.008],[126.482,37.019],[126.476,37.016],[126.490,36.989],[126.515,36.977],[126.504,36.968],[126.499,36.930],[126.492,36.927],[126.488,36.942],[126.463,36.959],[126.463,36.978],[126.449,36.982],[126.457,37.006],[126.436,37.015],[126.436,37.029],[126.457,37.037],[126.459,37.044],[126.446,37.066],[126.416,37.066],[126.412,37.060],[126.421,37.035],[126.415,37.019],[126.397,37.008],[126.381,37.017],[126.378,37.003],[126.370,37.000],[126.356,37.016],[126.322,36.989],[126.329,36.979],[126.328,36.959],[126.368,36.936],[126.366,36.920],[126.397,36.918],[126.413,36.905],[126.410,36.898],[126.361,36.881],[126.362,36.875],[126.377,36.867],[126.376,36.861],[126.355,36.855],[126.343,36.866],[126.310,36.849],[126.303,36.853],[126.335,36.885],[126.336,36.895],[126.349,36.901],[126.327,36.920],[126.315,36.914],[126.307,36.920],[126.316,36.958],[126.302,36.967],[126.304,36.980],[126.298,36.984],[126.274,36.965],[126.286,36.928],[126.269,36.880],[126.231,36.879],[126.245,36.909],[126.241,36.915],[126.175,36.892],[126.187,36.850],[126.172,36.838],[126.160,36.852],[126.154,36.852],[126.139,36.795],[126.104,36.774],[126.125,36.748],[126.114,36.705],[126.120,36.703],[126.136,36.713],[126.142,36.709],[126.141,36.693],[126.118,36.683],[126.120,36.674],[126.133,36.667],[126.147,36.676],[126.199,36.670],[126.243,36.700],[126.245,36.714],[126.262,36.716],[126.258,36.672],[126.279,36.666],[126.293,36.641],[126.277,36.591],[126.312,36.585],[126.308,36.569],[126.330,36.492],[126.318,36.467],[126.335,36.464],[126.327,36.441],[126.349,36.435],[126.347,36.422],[126.358,36.412],[126.329,36.398],[126.328,36.386],[126.334,36.383],[126.352,36.392],[126.362,36.375],[126.374,36.375],[126.380,36.367],[126.460,36.354],[126.465,36.359],[126.455,36.369],[126.457,36.382],[126.424,36.393],[126.439,36.425],[126.424,36.430],[126.424,36.444],[126.413,36.455],[126.415,36.473],[126.405,36.509],[126.384,36.523],[126.378,36.566],[126.370,36.574],[126.387,36.606],[126.385,36.627],[126.411,36.642],[126.457,36.709],[126.463,36.706],[126.468,36.682],[126.501,36.678],[126.477,36.650],[126.506,36.626],[126.511,36.606],[126.454,36.598],[126.450,36.592],[126.462,36.537],[126.484,36.516],[126.474,36.498],[126.490,36.430],[126.474,36.381],[126.499,36.378],[126.545,36.353],[126.496,36.322],[126.515,36.292],[126.541,36.300],[126.548,36.296],[126.522,36.218],[126.538,36.193],[126.554,36.187],[126.542,36.171],[126.527,36.180],[126.494,36.162],[126.488,36.132],[126.495,36.129],[126.520,36.144],[126.553,36.123],[126.576,36.129],[126.606,36.094],[126.619,36.089],[126.614,36.073],[126.661,36.031],[126.660,36.002],[126.680,35.994],[126.620,35.971],[126.622,35.952],[126.610,35.947],[126.586,35.957],[126.579,35.968],[126.547,35.974],[126.543,35.964],[126.572,35.958],[126.578,35.948],[126.606,35.939],[126.610,35.881],[126.650,35.894],[126.762,35.887],[126.779,35.873],[126.773,35.868],[126.735,35.873],[126.678,35.843],[126.751,35.809],[126.772,35.810],[126.773,35.775],[126.739,35.797],[126.682,35.778],[126.670,35.735],[126.634,35.758],[126.567,35.697],[126.531,35.694],[126.524,35.684],[126.452,35.640],[126.462,35.594],[126.508,35.573],[126.531,35.575],[126.538,35.590],[126.609,35.581],[126.615,35.558],[126.600,35.544],[126.565,35.550],[126.544,35.531],[126.526,35.541],[126.480,35.526],[126.468,35.486],[126.400,35.411],[126.410,35.376],[126.391,35.372],[126.369,35.317],[126.374,35.289],[126.335,35.260],[126.345,35.248],[126.343,35.242],[126.326,35.235],[126.308,35.257],[126.291,35.232],[126.293,35.224],[126.335,35.201],[126.344,35.209],[126.380,35.213],[126.377,35.202],[126.361,35.201],[126.359,35.189],[126.347,35.187],[126.345,35.181],[126.368,35.171],[126.365,35.157],[126.386,35.132],[126.407,35.140],[126.416,35.134],[126.416,35.103],[126.433,35.096],[126.430,35.084],[126.442,35.076],[126.441,35.069],[126.407,35.038],[126.398,35.047],[126.412,35.067],[126.392,35.090],[126.373,35.078],[126.353,35.086],[126.354,35.103],[126.338,35.108],[126.350,35.159],[126.345,35.165],[126.320,35.153],[126.313,35.141],[126.284,35.141],[126.270,35.155],[126.230,35.107],[126.215,35.110],[126.211,35.124],[126.200,35.133],[126.207,35.145],[126.202,35.151],[126.174,35.133],[126.177,35.125],[126.192,35.127],[126.191,35.113],[126.177,35.114],[126.149,35.095],[126.125,35.090],[126.114,35.106],[126.124,35.128],[126.165,35.139],[126.164,35.148],[126.111,35.147],[126.081,35.115],[126.052,35.116],[126.036,35.085],[126.024,35.104],[126.004,35.098],[126.005,35.087],[126.032,35.061],[126.061,35.049],[126.076,35.058],[126.100,35.042],[126.113,35.055],[126.120,35.054],[126.131,35.034],[126.122,35.028],[126.120,35.016],[126.092,34.999],[126.130,34.991],[126.121,34.945],[126.125,34.939],[126.149,34.946],[126.159,34.933],[126.173,34.940],[126.156,34.964],[126.185,34.975],[126.186,34.997],[126.175,35.013],[126.201,35.022],[126.202,35.032],[126.212,35.038],[126.209,35.053],[126.225,35.052],[126.219,35.016],[126.237,35.010],[126.242,34.969],[126.255,34.970],[126.293,34.929],[126.275,34.911],[126.296,34.891],[126.291,34.882],[126.277,34.887],[126.258,34.865],[126.229,34.869],[126.222,34.846],[126.262,34.834],[126.292,34.848],[126.301,34.835],[126.319,34.841],[126.328,34.837],[126.306,34.789],[126.285,34.781],[126.291,34.768],[126.277,34.724],[126.254,34.706],[126.250,34.663],[126.255,34.639],[126.276,34.623],[126.273,34.617],[126.256,34.617],[126.254,34.609],[126.273,34.604],[126.275,34.590],[126.270,34.586],[126.240,34.593],[126.235,34.565],[126.261,34.557],[126.261,34.541],[126.234,34.539],[126.223,34.546],[126.207,34.530],[126.205,34.519],[126.187,34.519],[126.167,34.499],[126.165,34.489],[126.121,34.470],[126.117,34.453],[126.091,34.467],[126.084,34.465],[126.102,34.447],[126.084,34.417],[126.114,34.375],[126.122,34.376],[126.125,34.396],[126.142,34.388],[126.125,34.357],[126.152,34.361],[126.180,34.344],[126.217,34.356],[126.223,34.368],[126.270,34.374],[126.279,34.366],[126.309,34.369],[126.311,34.395],[126.337,34.395],[126.360,34.408],[126.378,34.408],[126.378,34.415],[126.360,34.427],[126.370,34.441],[126.366,34.474],[126.389,34.480],[126.385,34.507],[126.345,34.554],[126.337,34.556],[126.323,34.539],[126.315,34.549],[126.334,34.560],[126.335,34.576],[126.348,34.586],[126.355,34.580],[126.351,34.561],[126.382,34.552],[126.384,34.528],[126.417,34.547],[126.437,34.519],[126.456,34.514],[126.448,34.482],[126.461,34.460],[126.448,34.448],[126.472,34.422],[126.504,34.428],[126.509,34.422],[126.485,34.415],[126.480,34.408],[126.485,34.394],[126.465,34.388],[126.473,34.370],[126.460,34.361],[126.457,34.344],[126.475,34.328],[126.477,34.346],[126.514,34.354],[126.519,34.336],[126.506,34.318],[126.521,34.289],[126.532,34.286],[126.535,34.274],[126.572,34.276],[126.580,34.286],[126.597,34.288],[126.599,34.307],[126.609,34.314],[126.623,34.390],[126.633,34.382],[126.638,34.327],[126.671,34.310],[126.693,34.288],[126.739,34.282],[126.748,34.294],[126.778,34.284],[126.781,34.291],[126.770,34.303],[126.780,34.315],[126.791,34.312],[126.826,34.319],[126.842,34.294],[126.863,34.314],[126.884,34.305],[126.903,34.341],[126.900,34.355],[126.953,34.369],[126.941,34.386],[126.948,34.417],[126.941,34.417],[126.930,34.397],[126.883,34.408],[126.881,34.414],[126.889,34.423],[126.880,34.449],[126.891,34.452],[126.899,34.465],[126.918,34.460],[126.928,34.441],[126.953,34.454],[126.970,34.441],[126.967,34.462],[126.983,34.470],[126.972,34.495],[126.983,34.512],[126.973,34.528],[126.991,34.536],[126.995,34.551],[127.009,34.553],[127.010,34.573],[126.993,34.582],[127.013,34.606],[127.014,34.617],[127.049,34.630],[127.068,34.658],[127.101,34.666],[127.131,34.697],[127.182,34.686],[127.239,34.761],[127.261,34.723],[127.248,34.714],[127.222,34.664],[127.242,34.619],[127.223,34.591],[127.189,34.587],[127.202,34.650],[127.196,34.656],[127.167,34.626],[127.165,34.603],[127.145,34.603],[127.108,34.548],[127.119,34.522],[127.093,34.513],[127.095,34.506],[127.113,34.500],[127.109,34.481],[127.077,34.465],[127.097,34.437],[127.115,34.439],[127.143,34.415],[127.167,34.429],[127.212,34.425],[127.245,34.473],[127.220,34.500],[127.144,34.478],[127.120,34.494],[127.134,34.501],[127.145,34.518],[127.176,34.515],[127.177,34.530],[127.186,34.533],[127.210,34.510],[127.221,34.519],[127.231,34.512],[127.253,34.515],[127.272,34.502],[127.265,34.479],[127.299,34.462],[127.283,34.442],[127.296,34.431],[127.335,34.430],[127.344,34.443],[127.336,34.456],[127.342,34.476],[127.358,34.485],[127.384,34.472],[127.388,34.497],[127.406,34.499],[127.416,34.510],[127.430,34.514],[127.444,34.503],[127.436,34.495],[127.439,34.484],[127.431,34.470],[127.446,34.468],[127.445,34.445],[127.485,34.427],[127.486,34.407],[127.542,34.428],[127.544,34.435],[127.507,34.480],[127.513,34.492],[127.505,34.508],[127.485,34.512],[127.470,34.525],[127.478,34.546],[127.459,34.552],[127.458,34.563],[127.447,34.576],[127.458,34.586],[127.489,34.568],[127.513,34.589],[127.510,34.605],[127.515,34.610],[127.535,34.591],[127.546,34.592],[127.562,34.580],[127.561,34.596],[127.572,34.604],[127.563,34.619],[127.584,34.627],[127.583,34.642],[127.590,34.645],[127.623,34.630],[127.621,34.611],[127.645,34.604],[127.639,34.593],[127.644,34.581],[127.632,34.569],[127.634,34.558],[127.658,34.547],[127.676,34.559],[127.687,34.554],[127.708,34.562],[127.707,34.571],[127.668,34.579],[127.660,34.594],[127.665,34.606],[127.649,34.622],[127.655,34.640],[127.646,34.645],[127.632,34.674],[127.644,34.685],[127.634,34.700],[127.647,34.705],[127.664,34.745],[127.694,34.719],[127.697,34.706],[127.712,34.698],[127.722,34.706],[127.747,34.699],[127.759,34.686],[127.718,34.659],[127.698,34.599],[127.678,34.601],[127.675,34.592],[127.696,34.585],[127.706,34.589],[127.724,34.573],[127.720,34.551],[127.693,34.544],[127.692,34.534],[127.725,34.523],[127.736,34.496],[127.755,34.495],[127.762,34.484],[127.788,34.485],[127.799,34.462],[127.779,34.433],[127.781,34.415],[127.806,34.403],[127.822,34.451],[127.809,34.468],[127.824,34.472],[127.830,34.500],[127.805,34.496],[127.788,34.505],[127.761,34.555],[127.748,34.557],[127.742,34.570],[127.748,34.576],[127.766,34.571],[127.771,34.585],[127.803,34.582],[127.808,34.587],[127.795,34.609],[127.812,34.663],[127.786,34.688],[127.794,34.699],[127.792,34.718],[127.762,34.732],[127.753,34.776],[127.776,34.803],[127.779,34.862],[127.744,34.857],[127.730,34.869],[127.731,34.879],[127.750,34.887],[127.752,34.894],[127.713,34.904],[127.687,34.884],[127.713,34.867],[127.713,34.859],[127.668,34.828],[127.647,34.830],[127.642,34.851],[127.612,34.856],[127.604,34.868],[127.608,34.874],[127.636,34.870],[127.638,34.878],[127.611,34.884],[127.600,34.874],[127.579,34.903],[127.585,34.918],[127.607,34.926],[127.624,34.900],[127.669,34.901],[127.680,34.925],[127.721,34.934],[127.735,34.922],[127.764,34.935],[127.769,34.950],[127.791,34.935],[127.822,34.937],[127.829,34.924],[127.842,34.941],[127.855,34.938],[127.853,34.909],[127.823,34.906],[127.822,34.877],[127.802,34.856],[127.851,34.778],[127.832,34.752],[127.858,34.723],[127.909,34.722],[127.911,34.760],[127.937,34.769],[127.945,34.736],[127.931,34.733],[127.929,34.726],[127.947,34.718],[127.952,34.706],[128.010,34.707],[128.018,34.698],[128.043,34.697],[128.062,34.705],[128.064,34.712],[128.046,34.730],[128.061,34.744],[128.071,34.823],[128.092,34.828],[128.062,34.855],[128.076,34.887],[128.080,34.920],[128.097,34.920],[128.100,34.909],[128.130,34.883],[128.157,34.901],[128.196,34.887],[128.206,34.933],[128.257,34.933],[128.270,34.895],[128.290,34.909],[128.305,34.880],[128.346,34.867],[128.358,34.873],[128.372,34.863],[128.361,34.845],[128.333,34.845],[128.325,34.824],[128.362,34.805],[128.361,34.787],[128.352,34.781],[128.352,34.773],[128.384,34.778],[128.398,34.757],[128.392,34.743],[128.375,34.742],[128.376,34.734],[128.408,34.724],[128.406,34.741],[128.430,34.751],[128.444,34.792],[128.441,34.834],[128.453,34.840],[128.467,34.819],[128.456,34.806],[128.453,34.786],[128.466,34.750],[128.441,34.710],[128.443,34.703],[128.471,34.704],[128.473,34.732],[128.511,34.728],[128.519,34.722],[128.542,34.726],[128.540,34.734],[128.519,34.735],[128.510,34.744],[128.514,34.751],[128.570,34.744],[128.581,34.730],[128.574,34.711],[128.568,34.710],[128.555,34.722],[128.547,34.716],[128.574,34.696],[128.638,34.703],[128.639,34.729],[128.687,34.733],[128.684,34.740],[128.654,34.747],[128.647,34.757],[128.674,34.776],[128.676,34.795],[128.742,34.784],[128.741,34.806],[128.758,34.824],[128.752,34.831],[128.737,34.818],[128.731,34.831],[128.740,34.841],[128.734,34.857],[128.747,34.864],[128.755,34.897],[128.714,34.876],[128.705,34.882],[128.721,34.896],[128.731,34.937],[128.720,34.957],[128.738,34.961],[128.740,34.967],[128.726,34.976],[128.710,34.966],[128.701,34.977],[128.699,34.990],[128.726,35.014],[128.748,35.010],[128.752,35.017],[128.726,35.022],[128.715,35.037],[128.680,35.046],[128.678,35.061],[128.661,35.065],[128.659,35.056],[128.675,35.049],[128.671,35.005],[128.655,34.999],[128.654,35.024],[128.647,35.027],[128.613,35.001],[128.606,34.976],[128.583,34.952],[128.618,34.906],[128.618,34.900],[128.586,34.917],[128.564,34.906],[128.531,34.927],[128.537,34.974],[128.515,34.978],[128.507,34.943],[128.515,34.918],[128.480,34.893],[128.476,34.899],[128.484,34.911],[128.468,34.925],[128.455,34.910],[128.440,34.918],[128.428,34.952],[128.451,34.982],[128.467,34.982],[128.506,35.010],[128.480,35.038],[128.488,35.063],[128.484,35.074],[128.488,35.081],[128.500,35.081],[128.501,35.093],[128.520,35.094],[128.534,35.105],[128.544,35.088],[128.565,35.085],[128.567,35.079],[128.559,35.068],[128.542,35.074],[128.537,35.066],[128.567,35.049],[128.637,35.064],[128.641,35.070],[128.631,35.077],[128.632,35.088],[128.607,35.107],[128.602,35.127],[128.633,35.143],[128.642,35.142],[128.661,35.117],[128.640,35.106],[128.642,35.098],[128.665,35.091],[128.665,35.111],[128.676,35.138],[128.683,35.140],[128.690,35.094],[128.713,35.101],[128.739,35.074],[128.756,35.078],[128.767,35.065],[128.773,35.071],[128.765,35.089],[128.785,35.105],[128.794,35.097],[128.782,35.081],[128.786,35.074],[128.829,35.096],[128.861,35.094],[128.872,35.081],[128.870,35.074],[128.853,35.071],[128.835,35.078],[128.792,35.052],[128.804,35.038],[128.802,35.020],[128.819,35.011],[128.822,34.990],[128.844,34.995],[128.856,35.055],[128.865,35.063],[128.883,35.061],[128.905,35.050],[128.957,35.052],[128.967,35.027],[128.983,35.052],[129.000,35.042],[129.009,35.050],[129.019,35.049],[129.035,35.085],[129.092,35.045],[129.095,35.051],[129.076,35.102],[129.127,35.095],[129.127,35.133],[129.120,35.142],[129.133,35.157],[129.182,35.149],[129.228,35.183],[129.233,35.221],[129.259,35.244],[129.247,35.261],[129.261,35.272],[129.269,35.310],[129.300,35.315],[129.339,35.350],[129.367,35.355],[129.353,35.379],[129.367,35.406],[129.362,35.423],[129.374,35.431],[129.363,35.454],[129.395,35.493],[129.401,35.490],[129.408,35.469],[129.450,35.490],[129.440,35.510],[129.470,35.603],[129.450,35.644],[129.479,35.683],[129.497,35.787],[129.540,35.867],[129.529,35.879],[129.538,35.900],[129.527,35.931],[129.588,36.015],[129.558,36.091],[129.449,35.999],[129.384,36.023],[129.379,36.041],[129.422,36.071],[129.436,36.100],[129.402,36.140],[129.404,36.172],[129.381,36.198],[129.392,36.216],[129.380,36.288],[129.393,36.356],[129.441,36.425],[129.439,36.480],[129.457,36.505],[129.416,36.589],[129.418,36.620],[129.442,36.665],[129.469,36.676],[129.482,36.727],[129.483,36.770],[129.421,36.891],[129.416,37.029],[129.436,37.061],[129.385,37.105],[129.381,37.139],[129.350,37.176],[129.348,37.224],[129.362,37.238],[129.335,37.284],[129.278,37.325],[129.263,37.383],[129.208,37.417],[129.195,37.458],[129.135,37.509],[129.123,37.580],[129.053,37.635],[129.062,37.678],[128.880,37.833],[128.832,37.909],[128.743,37.999],[128.742,38.025],[128.703,38.049],[128.619,38.147],[128.609,38.215],[128.568,38.258],[128.519,38.374],[128.467,38.429],[128.473,38.452],[128.432,38.501],[128.415,38.558],[128.366,38.615],[128.364,38.691],[128.289,38.730],[128.267,38.764],[128.251,38.739],[128.203,38.731],[128.201,38.738],[128.210,38.750],[128.147,38.794],[128.132,38.822],[128.064,38.862],[128.043,38.854],[128.007,38.864],[127.958,38.912],[127.959,38.930],[127.935,38.928],[127.918,38.941],[127.913,38.970],[127.887,38.966],[127.877,38.989],[127.854,38.990],[127.756,39.135],[127.728,39.118],[127.698,39.122],[127.673,39.111],[127.611,39.166],[127.537,39.149],[127.504,39.167],[127.475,39.207],[127.470,39.202],[127.471,39.169],[127.452,39.162],[127.384,39.215],[127.377,39.267],[127.412,39.296],[127.413,39.312],[127.439,39.297],[127.461,39.310],[127.461,39.321],[127.474,39.325],[127.482,39.352],[127.455,39.385],[127.461,39.388],[127.479,39.378],[127.502,39.400],[127.526,39.397],[127.540,39.364],[127.513,39.308],[127.562,39.291],[127.576,39.304],[127.521,39.520],[127.585,39.598],[127.548,39.650],[127.505,39.651],[127.501,39.656],[127.512,39.733],[127.554,39.754],[127.567,39.739],[127.574,39.741],[127.568,39.759],[127.558,39.766],[127.565,39.791],[127.588,39.794],[127.627,39.829],[127.642,39.828],[127.666,39.801],[127.707,39.848],[127.786,39.851],[127.804,39.875],[127.848,39.878],[127.868,39.892],[127.888,39.884],[127.895,39.972],[127.909,39.981],[127.932,39.976],[127.978,40.010],[127.984,40.029],[128.000,40.033],[127.994,40.045],[127.998,40.050],[128.058,40.028],[128.130,40.029],[128.160,40.000],[128.157,39.983],[128.161,39.979],[128.229,39.992],[128.234,40.014],[128.229,40.024],[128.239,40.032],[128.238,40.060],[128.259,40.069],[128.285,40.037],[128.331,40.025],[128.337,40.058],[128.379,40.101],[128.446,40.099],[128.471,40.128],[128.516,40.129],[128.591,40.181],[128.634,40.175],[128.673,40.221],[128.659,40.259],[128.624,40.275],[128.638,40.307],[128.669,40.304],[128.700,40.330],[128.754,40.333],[128.765,40.345],[128.783,40.341],[128.861,40.367],[128.972,40.454],[129.037,40.477],[129.083,40.473],[129.173,40.570],[129.223,40.697],[129.268,40.704],[129.305,40.673],[129.343,40.733],[129.397,40.754],[129.429,40.776],[129.519,40.790],[129.577,40.836],[129.701,40.844],[129.712,40.829],[129.719,40.830],[129.770,40.941],[129.731,40.986],[129.739,40.999],[129.724,41.066],[129.746,41.105],[129.722,41.114],[129.722,41.194],[129.738,41.203],[129.745,41.217],[129.737,41.247],[129.763,41.270],[129.758,41.297],[129.797,41.333],[129.812,41.383],[129.767,41.392],[129.739,41.423],[129.684,41.441],[129.655,41.491],[129.653,41.555],[129.673,41.572],[129.707,41.665],[129.744,41.684],[129.760,41.748],[129.772,41.752],[129.776,41.766],[129.814,41.775],[129.851,41.758],[129.851,41.781],[129.886,41.821],[129.900,41.904],[129.915,41.910],[129.959,41.894],[129.972,41.934],[129.993,41.943],[129.985,41.959],[130.001,41.970],[129.997,41.982],[130.011,42.006],[130.035,41.993],[130.051,42.042],[130.068,42.032],[130.087,42.040],[130.089,42.081],[130.121,42.088],[130.174,42.065],[130.179,42.085],[130.164,42.100],[130.176,42.106],[130.190,42.093],[130.197,42.095],[130.216,42.144],[130.214,42.171],[130.229,42.173],[130.293,42.230],[130.300,42.227],[130.311,42.179],[130.318,42.177],[130.335,42.212],[130.373,42.230],[130.376,42.251],[130.404,42.248],[130.390,42.283],[130.413,42.291],[130.409,42.318],[130.452,42.301],[130.466,42.328],[130.485,42.334],[130.521,42.315],[130.579,42.309],[130.600,42.285],[130.587,42.258],[130.592,42.252],[130.702,42.293],[130.726,42.328],[130.662,42.335],[130.608,42.422],[130.577,42.439],[130.549,42.491],[130.517,42.606],[130.486,42.614],[130.458,42.597],[130.464,42.561],[130.442,42.553],[130.428,42.605],[130.386,42.609],[130.249,42.719],[130.255,42.896],[130.115,42.915],[130.114,42.922],[130.140,42.962],[130.109,42.983],[130.048,42.963],[129.994,42.967],[129.938,43.008],[129.905,43.010],[129.870,42.992],[129.883,42.977],[129.882,42.971],[129.846,42.962],[129.843,42.921],[129.753,42.731],[129.748,42.692],[129.779,42.669],[129.770,42.651],[129.738,42.642],[129.753,42.604],[129.722,42.569],[129.724,42.480],[129.697,42.442],[129.662,42.433],[129.589,42.449],[129.586,42.419],[129.561,42.407],[129.536,42.372],[129.443,42.439],[129.378,42.431],[129.366,42.448],[129.339,42.450],[129.336,42.422],[129.309,42.424],[129.290,42.388],[129.232,42.374],[129.214,42.352],[129.225,42.326],[129.186,42.315],[129.213,42.292],[129.170,42.234],[129.200,42.226],[129.201,42.216],[129.114,42.145],[129.063,42.152],[129.029,42.106],[128.955,42.085],[128.915,42.028],[128.728,42.051],[128.675,42.024],[128.629,42.034],[128.568,42.005],[128.491,42.000],[128.423,42.033],[128.290,42.044],[128.055,42.007],[128.055,41.909],[128.097,41.793],[128.129,41.767],[128.157,41.705],[128.258,41.641],[128.295,41.578],[128.200,41.420],[128.153,41.387],[128.119,41.377],[128.107,41.399],[128.084,41.386],[128.053,41.392],[128.051,41.422],[128.023,41.416],[128.001,41.450],[127.979,41.430],[127.937,41.451],[127.872,41.444],[127.852,41.410],[127.654,41.427],[127.640,41.410],[127.561,41.433],[127.540,41.468],[127.465,41.478],[127.428,41.460],[127.392,41.476],[127.287,41.477],[127.283,41.482],[127.292,41.500],[127.288,41.505],[127.248,41.503],[127.211,41.526],[127.179,41.521],[127.160,41.534],[127.137,41.524],[127.118,41.533],[127.119,41.540],[127.181,41.583],[127.182,41.590],[127.128,41.600],[127.048,41.655],[127.050,41.670],[127.079,41.677],[127.081,41.685],[127.039,41.736],[126.943,41.766],[126.938,41.798],[126.893,41.792],[126.840,41.737],[126.795,41.735],[126.781,41.701],[126.692,41.744],[126.674,41.723],[126.706,41.701],[126.706,41.694],[126.664,41.669],[126.612,41.668],[126.559,41.613],[126.578,41.566],[126.549,41.499],[126.495,41.432],[126.518,41.359],[126.498,41.353],[126.492,41.370],[126.453,41.361],[126.361,41.276],[126.348,41.239],[126.306,41.217],[126.274,41.156],[126.173,41.098],[126.120,41.084],[126.125,41.045],[126.067,40.996],[126.066,40.973],[126.029,40.935],[125.973,40.916],[125.975,40.908],[125.995,40.905],[125.995,40.897],[125.939,40.882],[125.914,40.903],[125.877,40.899],[125.820,40.867],[125.759,40.888],[125.732,40.866],[125.695,40.863],[125.649,40.824],[125.641,40.797],[125.662,40.775],[125.661,40.768],[125.608,40.761],[125.588,40.787],[125.561,40.782],[125.540,40.724],[125.461,40.717],[125.454,40.679],[125.412,40.666],[125.401,40.631],[125.370,40.644],[125.334,40.639],[125.324,40.652],[125.285,40.652],[125.244,40.608],[125.162,40.598],[125.015,40.535],[125.004,40.509],[125.027,40.468],[125.024,40.461],[124.923,40.458],[124.906,40.479],[124.883,40.477],[124.829,40.413],[124.739,40.373],[124.704,40.309],[124.619,40.286],[124.552,40.246],[124.538,40.220]]],[[[126.165,34.676],[126.172,34.671],[126.165,34.665],[126.160,34.670],[126.165,34.676]]],[[[126.128,34.824],[126.142,34.820],[126.139,34.803],[126.129,34.801],[126.128,34.824]]],[[[126.107,34.860],[126.090,34.867],[126.091,34.879],[126.106,34.882],[126.107,34.860]]],[[[126.082,34.797],[126.073,34.808],[126.077,34.815],[126.091,34.802],[126.082,34.797]]],[[[126.072,34.591],[126.081,34.580],[126.071,34.569],[126.064,34.587],[126.072,34.591]]],[[[126.046,34.839],[126.059,34.842],[126.073,34.818],[126.045,34.831],[126.046,34.839]]],[[[127.306,34.037],[127.310,34.044],[127.318,34.038],[127.313,34.032],[127.306,34.037]]],[[[126.627,34.187],[126.641,34.170],[126.631,34.161],[126.603,34.166],[126.600,34.174],[126.617,34.178],[126.613,34.196],[126.625,34.202],[126.627,34.187]]],[[[126.481,37.470],[126.483,37.463],[126.474,37.462],[126.474,37.470],[126.481,37.470]]],[[[129.061,35.100],[129.049,35.104],[129.057,35.119],[129.066,35.106],[129.061,35.100]]],[[[128.940,35.085],[128.957,35.085],[128.959,35.066],[128.931,35.065],[128.931,35.082],[128.922,35.089],[128.929,35.096],[128.940,35.085]]],[[[128.892,35.096],[128.899,35.097],[128.904,35.079],[128.893,35.069],[128.884,35.078],[128.892,35.096]]],[[[128.747,35.087],[128.741,35.089],[128.743,35.096],[128.750,35.093],[128.747,35.087]]],[[[128.587,35.168],[128.572,35.180],[128.582,35.193],[128.595,35.173],[128.587,35.168]]],[[[128.534,34.790],[128.536,34.764],[128.516,34.766],[128.500,34.797],[128.508,34.802],[128.527,34.799],[128.572,34.836],[128.588,34.826],[128.578,34.801],[128.534,34.790]]],[[[128.565,34.765],[128.572,34.763],[128.569,34.755],[128.563,34.758],[128.565,34.765]]],[[[128.498,34.828],[128.501,34.805],[128.456,34.839],[128.459,34.862],[128.465,34.865],[128.473,34.843],[128.498,34.828]]],[[[128.483,35.093],[128.478,35.086],[128.471,35.093],[128.476,35.098],[128.483,35.093]]],[[[128.323,34.942],[128.332,34.928],[128.329,34.914],[128.312,34.912],[128.308,34.918],[128.317,34.940],[128.323,34.942]]],[[[128.174,40.020],[128.178,40.024],[128.226,40.025],[128.223,40.014],[128.198,40.005],[128.174,40.020]]],[[[128.049,34.917],[128.055,34.926],[128.073,34.923],[128.066,34.893],[128.058,34.891],[128.047,34.903],[128.035,34.903],[128.036,34.915],[128.049,34.917]]],[[[127.901,34.874],[127.929,34.888],[127.935,34.926],[127.900,34.949],[127.901,34.957],[127.929,34.969],[127.921,34.982],[127.927,34.992],[127.948,34.970],[127.960,34.971],[127.973,34.958],[127.998,34.962],[127.999,34.974],[127.992,34.974],[127.989,34.980],[128.012,34.979],[128.024,35.004],[128.015,35.022],[128.023,35.034],[128.030,35.033],[128.031,35.021],[128.041,35.014],[128.034,34.993],[128.043,34.976],[128.025,34.958],[128.038,34.933],[128.026,34.924],[127.996,34.916],[127.957,34.872],[127.964,34.840],[127.980,34.831],[127.962,34.816],[127.947,34.834],[127.910,34.845],[127.901,34.874]]],[[[127.809,34.947],[127.797,34.943],[127.788,34.958],[127.807,34.959],[127.809,34.947]]],[[[127.393,34.724],[127.381,34.725],[127.380,34.739],[127.406,34.768],[127.406,34.775],[127.399,34.779],[127.404,34.786],[127.410,34.779],[127.438,34.773],[127.473,34.782],[127.465,34.809],[127.434,34.784],[127.416,34.795],[127.434,34.812],[127.431,34.827],[127.490,34.835],[127.501,34.865],[127.497,34.876],[127.512,34.879],[127.521,34.844],[127.534,34.835],[127.520,34.804],[127.555,34.800],[127.564,34.787],[127.554,34.778],[127.555,34.766],[127.583,34.748],[127.575,34.741],[127.559,34.750],[127.554,34.747],[127.561,34.733],[127.547,34.721],[127.547,34.693],[127.557,34.674],[127.547,34.662],[127.550,34.651],[127.541,34.643],[127.540,34.633],[127.524,34.628],[127.512,34.639],[127.501,34.636],[127.479,34.668],[127.462,34.674],[127.453,34.667],[127.446,34.671],[127.446,34.677],[127.458,34.689],[127.439,34.702],[127.451,34.719],[127.450,34.725],[127.429,34.713],[127.405,34.714],[127.393,34.724]]],[[[127.517,34.615],[127.510,34.610],[127.506,34.619],[127.513,34.621],[127.517,34.615]]],[[[127.486,34.481],[127.494,34.481],[127.495,34.474],[127.484,34.473],[127.486,34.481]]],[[[127.420,39.371],[127.401,39.359],[127.391,39.363],[127.393,39.370],[127.406,39.372],[127.407,39.384],[127.414,39.387],[127.438,39.374],[127.431,39.365],[127.420,39.371]]],[[[127.343,34.585],[127.383,34.603],[127.405,34.592],[127.406,34.585],[127.386,34.561],[127.358,34.553],[127.343,34.585]]],[[[127.356,34.773],[127.352,34.779],[127.371,34.788],[127.379,34.780],[127.374,34.774],[127.356,34.773]]],[[[127.338,34.713],[127.311,34.669],[127.290,34.669],[127.286,34.719],[127.323,34.741],[127.338,34.713]]],[[[127.266,34.729],[127.273,34.731],[127.276,34.724],[127.267,34.721],[127.266,34.729]]],[[[126.880,34.343],[126.832,34.364],[126.814,34.345],[126.789,34.351],[126.795,34.374],[126.855,34.386],[126.860,34.368],[126.881,34.373],[126.883,34.357],[126.891,34.349],[126.880,34.343]]],[[[126.852,34.423],[126.853,34.433],[126.862,34.431],[126.861,34.421],[126.852,34.423]]],[[[126.814,37.296],[126.827,37.288],[126.827,37.281],[126.810,37.288],[126.814,37.296]]],[[[126.800,34.462],[126.803,34.441],[126.770,34.427],[126.749,34.394],[126.704,34.423],[126.721,34.440],[126.739,34.443],[126.712,34.468],[126.726,34.473],[126.748,34.465],[126.747,34.484],[126.771,34.499],[126.754,34.519],[126.786,34.525],[126.779,34.469],[126.800,34.462]]],[[[126.787,35.874],[126.794,35.881],[126.801,35.872],[126.789,35.866],[126.787,35.874]]],[[[126.773,34.587],[126.794,34.550],[126.792,34.538],[126.786,34.536],[126.773,34.547],[126.770,34.565],[126.761,34.574],[126.773,34.587]]],[[[126.775,34.340],[126.742,34.341],[126.732,34.382],[126.737,34.386],[126.763,34.374],[126.760,34.359],[126.777,34.348],[126.775,34.340]]],[[[126.722,34.403],[126.727,34.398],[126.723,34.392],[126.716,34.398],[126.722,34.403]]],[[[126.694,34.430],[126.701,34.428],[126.692,34.408],[126.683,34.410],[126.694,34.430]]],[[[126.687,37.669],[126.686,37.662],[126.662,37.671],[126.664,37.681],[126.687,37.669]]],[[[126.670,37.803],[126.682,37.731],[126.675,37.733],[126.652,37.778],[126.663,37.802],[126.670,37.803]]],[[[126.639,34.409],[126.659,34.420],[126.673,34.410],[126.671,34.404],[126.648,34.399],[126.639,34.409]]],[[[126.631,35.590],[126.652,35.594],[126.662,35.557],[126.629,35.581],[126.631,35.590]]],[[[126.651,37.206],[126.659,37.211],[126.661,37.201],[126.653,37.198],[126.651,37.206]]],[[[126.618,37.787],[126.644,37.781],[126.608,37.758],[126.578,37.759],[126.578,37.768],[126.618,37.787]]],[[[126.617,34.825],[126.621,34.799],[126.587,34.802],[126.581,34.811],[126.617,34.825]]],[[[126.565,34.286],[126.531,34.288],[126.559,34.317],[126.582,34.313],[126.583,34.305],[126.565,34.286]]],[[[126.567,34.843],[126.560,34.832],[126.565,34.820],[126.536,34.812],[126.531,34.819],[126.542,34.859],[126.528,34.900],[126.534,34.902],[126.557,34.887],[126.575,34.895],[126.576,34.871],[126.555,34.855],[126.567,34.843]]],[[[126.439,34.668],[126.457,34.703],[126.415,34.692],[126.391,34.721],[126.392,34.728],[126.412,34.740],[126.426,34.730],[126.445,34.735],[126.454,34.723],[126.494,34.730],[126.535,34.678],[126.557,34.675],[126.560,34.652],[126.523,34.657],[126.517,34.634],[126.469,34.647],[126.439,34.668]]],[[[126.550,37.779],[126.519,37.771],[126.513,37.785],[126.492,37.799],[126.498,37.807],[126.536,37.796],[126.550,37.779]]],[[[126.535,36.457],[126.542,36.459],[126.544,36.451],[126.535,36.448],[126.535,36.457]]],[[[126.509,34.776],[126.519,34.776],[126.519,34.764],[126.507,34.768],[126.509,34.776]]],[[[126.509,34.547],[126.493,34.541],[126.491,34.529],[126.475,34.520],[126.470,34.527],[126.476,34.560],[126.510,34.554],[126.509,34.547]]],[[[126.444,34.768],[126.427,34.777],[126.415,34.764],[126.401,34.774],[126.404,34.782],[126.425,34.786],[126.433,34.797],[126.477,34.802],[126.480,34.785],[126.498,34.770],[126.499,34.757],[126.488,34.755],[126.474,34.780],[126.465,34.784],[126.445,34.786],[126.444,34.768]]],[[[126.371,34.620],[126.358,34.655],[126.336,34.670],[126.343,34.679],[126.369,34.669],[126.371,34.653],[126.387,34.643],[126.413,34.655],[126.434,34.616],[126.447,34.615],[126.457,34.595],[126.448,34.590],[126.383,34.622],[126.371,34.620]]],[[[126.388,34.967],[126.405,34.996],[126.427,34.978],[126.393,34.960],[126.388,34.967]]],[[[126.412,36.378],[126.372,36.378],[126.359,36.399],[126.360,36.407],[126.389,36.414],[126.423,36.388],[126.412,36.378]]],[[[126.362,34.813],[126.358,34.820],[126.377,34.845],[126.367,34.860],[126.369,34.866],[126.389,34.872],[126.404,34.845],[126.362,34.813]]],[[[126.351,34.870],[126.321,34.873],[126.322,34.880],[126.355,34.893],[126.358,34.916],[126.374,34.921],[126.375,34.933],[126.386,34.940],[126.397,34.910],[126.384,34.885],[126.351,34.870]]],[[[126.317,34.748],[126.335,34.783],[126.344,34.790],[126.345,34.798],[126.336,34.804],[126.340,34.810],[126.359,34.810],[126.361,34.790],[126.349,34.785],[126.354,34.768],[126.345,34.750],[126.385,34.724],[126.385,34.709],[126.373,34.695],[126.351,34.697],[126.352,34.713],[126.317,34.748]]],[[[126.370,34.961],[126.376,34.965],[126.384,34.957],[126.381,34.949],[126.370,34.961]]],[[[126.374,34.775],[126.380,34.771],[126.376,34.765],[126.370,34.769],[126.374,34.775]]],[[[126.277,34.971],[126.269,34.999],[126.257,35.008],[126.269,35.021],[126.269,35.048],[126.286,35.052],[126.297,35.036],[126.324,35.059],[126.347,35.034],[126.372,35.040],[126.377,35.035],[126.329,35.000],[126.330,34.993],[126.345,34.985],[126.331,34.973],[126.311,34.988],[126.319,35.015],[126.311,35.019],[126.305,34.993],[126.288,34.968],[126.277,34.971]]],[[[126.372,36.698],[126.365,36.677],[126.376,36.669],[126.363,36.629],[126.356,36.627],[126.329,36.638],[126.346,36.660],[126.314,36.678],[126.304,36.699],[126.308,36.704],[126.323,36.702],[126.334,36.728],[126.350,36.735],[126.355,36.732],[126.356,36.709],[126.372,36.698]]],[[[126.315,35.062],[126.310,35.075],[126.324,35.077],[126.324,35.062],[126.315,35.062]]],[[[126.283,34.591],[126.292,34.590],[126.290,34.582],[126.281,34.584],[126.283,34.591]]],[[[126.239,35.065],[126.233,35.074],[126.244,35.080],[126.245,35.097],[126.259,35.094],[126.260,35.072],[126.239,35.065]]],[[[126.241,34.531],[126.245,34.524],[126.237,34.521],[126.234,34.528],[126.241,34.531]]],[[[126.199,35.031],[126.189,35.031],[126.175,35.054],[126.180,35.059],[126.201,35.037],[126.199,35.031]]],[[[126.179,36.740],[126.200,36.733],[126.192,36.715],[126.157,36.720],[126.150,36.745],[126.154,36.750],[126.173,36.750],[126.179,36.740]]],[[[126.118,35.060],[126.128,35.078],[126.149,35.086],[126.163,35.079],[126.156,35.060],[126.123,35.055],[126.118,35.060]]],[[[125.631,38.028],[125.644,38.014],[125.673,38.019],[125.686,38.001],[125.644,37.971],[125.574,38.026],[125.593,38.037],[125.618,38.021],[125.631,38.028]]],[[[125.558,38.690],[125.542,38.698],[125.518,38.672],[125.437,38.721],[125.437,38.747],[125.450,38.760],[125.463,38.745],[125.459,38.726],[125.495,38.716],[125.508,38.725],[125.557,38.705],[125.564,38.693],[125.558,38.690]]],[[[125.553,37.772],[125.547,37.780],[125.558,37.787],[125.563,37.776],[125.553,37.772]]],[[[125.456,37.883],[125.474,37.898],[125.507,37.889],[125.503,37.881],[125.453,37.871],[125.437,37.877],[125.444,37.903],[125.456,37.883]]],[[[125.458,37.860],[125.472,37.859],[125.472,37.839],[125.458,37.833],[125.453,37.839],[125.458,37.860]]],[[[125.380,37.810],[125.374,37.795],[125.356,37.797],[125.368,37.815],[125.357,37.826],[125.363,37.843],[125.386,37.839],[125.392,37.851],[125.420,37.858],[125.433,37.835],[125.413,37.817],[125.398,37.824],[125.396,37.806],[125.380,37.810]]],[[[125.425,38.724],[125.431,38.720],[125.420,38.696],[125.365,38.702],[125.365,38.712],[125.374,38.716],[125.388,38.710],[125.425,38.724]]],[[[125.413,39.393],[125.421,39.391],[125.420,39.383],[125.409,39.386],[125.413,39.393]]],[[[125.353,37.773],[125.335,37.781],[125.349,37.795],[125.355,37.791],[125.353,37.773]]],[[[125.290,37.809],[125.276,37.822],[125.297,37.827],[125.297,37.811],[125.290,37.809]]],[[[125.238,37.916],[125.239,37.924],[125.248,37.922],[125.245,37.914],[125.238,37.916]]],[[[125.226,38.745],[125.236,38.758],[125.244,38.752],[125.232,38.738],[125.226,38.745]]],[[[125.232,38.037],[125.232,38.026],[125.222,38.028],[125.224,38.040],[125.232,38.037]]],[[[125.151,37.975],[125.155,37.969],[125.150,37.963],[125.138,37.963],[125.139,37.973],[125.151,37.975]]]]}}]}